IRIDIUM 2 [-]           
1 25527U 98066A   24020.56146930  .00055567  00000+0  93460-3 0  9994
2 25527  85.5143  38.0969 0005844 135.1950 224.9781 15.51509032384660
